CCSDS_OMM_VERS = 2.0
CREATION_DATE  = 
ORIGINATOR     = 

OBJECT_NAME    = STARLINK-35343
OBJECT_ID      = 2026-003A
CENTER_NAME    = EARTH
REF_FRAME      = TEME
TIME_SYSTEM    = UTC
MEAN_ELEMENT_THEORY = SGP/SGP4

EPOCH          = 2026-01-30T22:00:00.999936
MEAN_MOTION    = 15.57194370
ECCENTRICITY   = .00013294
INCLINATION    = 43.0000
RA_OF_ASC_NODE = 82.5094
ARG_OF_PERICENTER = 264.1993
MEAN_ANOMALY   = 60.0588

EPHEMERIS_TYPE = 0
CLASSIFICATION_TYPE = U
NORAD_CAT_ID   = 67334
ELEMENT_SET_NO = 999
REV_AT_EPOCH   = 454
BSTAR          = -.31274589E-1
MEAN_MOTION_DOT = -.2081527E-1
MEAN_MOTION_DDOT = 0

CCSDS_OMM_VERS = 2.0
CREATION_DATE  = 
ORIGINATOR     = 

OBJECT_NAME    = STARLINK-36486
OBJECT_ID      = 2026-003B
CENTER_NAME    = EARTH
REF_FRAME      = TEME
TIME_SYSTEM    = UTC
MEAN_ELEMENT_THEORY = SGP/SGP4

EPOCH          = 2026-01-30T22:00:00.999936
MEAN_MOTION    = 15.57195447
ECCENTRICITY   = .00013217
INCLINATION    = 43.0001
RA_OF_ASC_NODE = 82.5046
ARG_OF_PERICENTER = 266.5583
MEAN_ANOMALY   = 59.6156

EPHEMERIS_TYPE = 0
CLASSIFICATION_TYPE = U
NORAD_CAT_ID   = 67335
ELEMENT_SET_NO = 999
REV_AT_EPOCH   = 460
BSTAR          = -.31294754E-1
MEAN_MOTION_DOT = -.2082793E-1
MEAN_MOTION_DDOT = 0

CCSDS_OMM_VERS = 2.0
CREATION_DATE  = 
ORIGINATOR     = 

OBJECT_NAME    = STARLINK-36480
OBJECT_ID      = 2026-003C
CENTER_NAME    = EARTH
REF_FRAME      = TEME
TIME_SYSTEM    = UTC
MEAN_ELEMENT_THEORY = SGP/SGP4

EPOCH          = 2026-01-30T22:00:00.999936
MEAN_MOTION    = 15.57193219
ECCENTRICITY   = .00012282
INCLINATION    = 42.9999
RA_OF_ASC_NODE = 82.5002
ARG_OF_PERICENTER = 267.7673
MEAN_ANOMALY   = 60.3239

EPHEMERIS_TYPE = 0
CLASSIFICATION_TYPE = U
NORAD_CAT_ID   = 67336
ELEMENT_SET_NO = 999
REV_AT_EPOCH   = 460
BSTAR          = -.31247378E-1
MEAN_MOTION_DOT = -.2079766E-1
MEAN_MOTION_DDOT = 0

CCSDS_OMM_VERS = 2.0
CREATION_DATE  = 
ORIGINATOR     = 

OBJECT_NAME    = STARLINK-36410
OBJECT_ID      = 2026-003D
CENTER_NAME    = EARTH
REF_FRAME      = TEME
TIME_SYSTEM    = UTC
MEAN_ELEMENT_THEORY = SGP/SGP4

EPOCH          = 2026-01-30T22:00:00.999936
MEAN_MOTION    = 15.57192887
ECCENTRICITY   = .00012742
INCLINATION    = 43.0002
RA_OF_ASC_NODE = 82.4951
ARG_OF_PERICENTER = 269.8350
MEAN_ANOMALY   = 60.1739

EPHEMERIS_TYPE = 0
CLASSIFICATION_TYPE = U
NORAD_CAT_ID   = 67337
ELEMENT_SET_NO = 999
REV_AT_EPOCH   = 460
BSTAR          = -.3125934E-1
MEAN_MOTION_DOT = -.2080482E-1
MEAN_MOTION_DDOT = 0

CCSDS_OMM_VERS = 2.0
CREATION_DATE  = 
ORIGINATOR     = 

OBJECT_NAME    = STARLINK-36413
OBJECT_ID      = 2026-003E
CENTER_NAME    = EARTH
REF_FRAME      = TEME
TIME_SYSTEM    = UTC
MEAN_ELEMENT_THEORY = SGP/SGP4

EPOCH          = 2026-01-30T22:00:00.999936
MEAN_MOTION    = 15.57194299
ECCENTRICITY   = .00014429
INCLINATION    = 43.0004
RA_OF_ASC_NODE = 82.4905
ARG_OF_PERICENTER = 265.7441
MEAN_ANOMALY   = 66.1827

EPHEMERIS_TYPE = 0
CLASSIFICATION_TYPE = U
NORAD_CAT_ID   = 67338
ELEMENT_SET_NO = 999
REV_AT_EPOCH   = 460
BSTAR          = -.31284193E-1
MEAN_MOTION_DOT = -.2082166E-1
MEAN_MOTION_DDOT = 0

CCSDS_OMM_VERS = 2.0
CREATION_DATE  = 
ORIGINATOR     = 

OBJECT_NAME    = STARLINK-36451
OBJECT_ID      = 2026-003F
CENTER_NAME    = EARTH
REF_FRAME      = TEME
TIME_SYSTEM    = UTC
MEAN_ELEMENT_THEORY = SGP/SGP4

EPOCH          = 2026-01-30T22:00:00.999936
MEAN_MOTION    = 15.57197161
ECCENTRICITY   = .00012684
INCLINATION    = 43.0001
RA_OF_ASC_NODE = 82.4852
ARG_OF_PERICENTER = 269.0180
MEAN_ANOMALY   = 64.8229

EPHEMERIS_TYPE = 0
CLASSIFICATION_TYPE = U
NORAD_CAT_ID   = 67339
ELEMENT_SET_NO = 999
REV_AT_EPOCH   = 460
BSTAR          = -.31345149E-1
MEAN_MOTION_DOT = -.2085867E-1
MEAN_MOTION_DDOT = 0

CCSDS_OMM_VERS = 2.0
CREATION_DATE  = 
ORIGINATOR     = 

OBJECT_NAME    = STARLINK-36339
OBJECT_ID      = 2026-003G
CENTER_NAME    = EARTH
REF_FRAME      = TEME
TIME_SYSTEM    = UTC
MEAN_ELEMENT_THEORY = SGP/SGP4

EPOCH          = 2026-01-30T22:00:00.999936
MEAN_MOTION    = 15.57197415
ECCENTRICITY   = .00012129
INCLINATION    = 43.0002
RA_OF_ASC_NODE = 82.4808
ARG_OF_PERICENTER = 268.2005
MEAN_ANOMALY   = 67.5590

EPHEMERIS_TYPE = 0
CLASSIFICATION_TYPE = U
NORAD_CAT_ID   = 67340
ELEMENT_SET_NO = 999
REV_AT_EPOCH   = 460
BSTAR          = -.3138155E-1
MEAN_MOTION_DOT = -.2088007E-1
MEAN_MOTION_DDOT = 0

CCSDS_OMM_VERS = 2.0
CREATION_DATE  = 
ORIGINATOR     = 

OBJECT_NAME    = STARLINK-36453
OBJECT_ID      = 2026-003H
CENTER_NAME    = EARTH
REF_FRAME      = TEME
TIME_SYSTEM    = UTC
MEAN_ELEMENT_THEORY = SGP/SGP4

EPOCH          = 2026-01-30T22:00:00.999936
MEAN_MOTION    = 15.57194140
ECCENTRICITY   = .00012104
INCLINATION    = 43.0004
RA_OF_ASC_NODE = 82.4750
ARG_OF_PERICENTER = 270.5779
MEAN_ANOMALY   = 67.0996

EPHEMERIS_TYPE = 0
CLASSIFICATION_TYPE = U
NORAD_CAT_ID   = 67341
ELEMENT_SET_NO = 999
REV_AT_EPOCH   = 460
BSTAR          = -.31302975E-1
MEAN_MOTION_DOT = -.2083116E-1
MEAN_MOTION_DDOT = 0

CCSDS_OMM_VERS = 2.0
CREATION_DATE  = 
ORIGINATOR     = 

OBJECT_NAME    = STARLINK-36432
OBJECT_ID      = 2026-003J
CENTER_NAME    = EARTH
REF_FRAME      = TEME
TIME_SYSTEM    = UTC
MEAN_ELEMENT_THEORY = SGP/SGP4

EPOCH          = 2026-01-30T22:00:00.999936
MEAN_MOTION    = 15.57194671
ECCENTRICITY   = .00013747
INCLINATION    = 43.0005
RA_OF_ASC_NODE = 82.4708
ARG_OF_PERICENTER = 268.3594
MEAN_ANOMALY   = 71.2344

EPHEMERIS_TYPE = 0
CLASSIFICATION_TYPE = U
NORAD_CAT_ID   = 67342
ELEMENT_SET_NO = 999
REV_AT_EPOCH   = 459
BSTAR          = -.31287037E-1
MEAN_MOTION_DOT = -.2082316E-1
MEAN_MOTION_DDOT = 0

CCSDS_OMM_VERS = 2.0
CREATION_DATE  = 
ORIGINATOR     = 

OBJECT_NAME    = STARLINK-36458
OBJECT_ID      = 2026-003K
CENTER_NAME    = EARTH
REF_FRAME      = TEME
TIME_SYSTEM    = UTC
MEAN_ELEMENT_THEORY = SGP/SGP4

EPOCH          = 2026-01-30T22:00:00.999936
MEAN_MOTION    = 15.57196515
ECCENTRICITY   = .00012281
INCLINATION    = 43.0005
RA_OF_ASC_NODE = 82.4659
ARG_OF_PERICENTER = 267.3801
MEAN_ANOMALY   = 74.1305

EPHEMERIS_TYPE = 0
CLASSIFICATION_TYPE = U
NORAD_CAT_ID   = 67343
ELEMENT_SET_NO = 999
REV_AT_EPOCH   = 460
BSTAR          = -.31338888E-1
MEAN_MOTION_DOT = -.2085424E-1
MEAN_MOTION_DDOT = 0

CCSDS_OMM_VERS = 2.0
CREATION_DATE  = 
ORIGINATOR     = 

OBJECT_NAME    = STARLINK-36422
OBJECT_ID      = 2026-003L
CENTER_NAME    = EARTH
REF_FRAME      = TEME
TIME_SYSTEM    = UTC
MEAN_ELEMENT_THEORY = SGP/SGP4

EPOCH          = 2026-01-30T22:00:00.999936
MEAN_MOTION    = 15.57194615
ECCENTRICITY   = .00014632
INCLINATION    = 43.0002
RA_OF_ASC_NODE = 82.4601
ARG_OF_PERICENTER = 270.5310
MEAN_ANOMALY   = 72.8967

EPHEMERIS_TYPE = 0
CLASSIFICATION_TYPE = U
NORAD_CAT_ID   = 67344
ELEMENT_SET_NO = 999
REV_AT_EPOCH   = 459
BSTAR          = -.31284606E-1
MEAN_MOTION_DOT = -.2082227E-1
MEAN_MOTION_DDOT = 0

CCSDS_OMM_VERS = 2.0
CREATION_DATE  = 
ORIGINATOR     = 

OBJECT_NAME    = STARLINK-35676
OBJECT_ID      = 2026-003M
CENTER_NAME    = EARTH
REF_FRAME      = TEME
TIME_SYSTEM    = UTC
MEAN_ELEMENT_THEORY = SGP/SGP4

EPOCH          = 2026-01-30T22:00:00.999936
MEAN_MOTION    = 15.57121432
ECCENTRICITY   = .0001449
INCLINATION    = 42.9998
RA_OF_ASC_NODE = 82.4555
ARG_OF_PERICENTER = 266.1335
MEAN_ANOMALY   = 79.2700

EPHEMERIS_TYPE = 0
CLASSIFICATION_TYPE = U
NORAD_CAT_ID   = 67345
ELEMENT_SET_NO = 999
REV_AT_EPOCH   = 459
BSTAR          = -.3011921E-1
MEAN_MOTION_DOT = -.197111E-1
MEAN_MOTION_DDOT = 0

CCSDS_OMM_VERS = 2.0
CREATION_DATE  = 
ORIGINATOR     = 

OBJECT_NAME    = STARLINK-36472
OBJECT_ID      = 2026-003N
CENTER_NAME    = EARTH
REF_FRAME      = TEME
TIME_SYSTEM    = UTC
MEAN_ELEMENT_THEORY = SGP/SGP4

EPOCH          = 2026-01-30T22:00:00.999936
MEAN_MOTION    = 15.57198700
ECCENTRICITY   = .00012732
INCLINATION    = 42.9997
RA_OF_ASC_NODE = 82.4506
ARG_OF_PERICENTER = 268.3235
MEAN_ANOMALY   = 78.9374

EPHEMERIS_TYPE = 0
CLASSIFICATION_TYPE = U
NORAD_CAT_ID   = 67346
ELEMENT_SET_NO = 999
REV_AT_EPOCH   = 459
BSTAR          = -.31393356E-1
MEAN_MOTION_DOT = -.2088837E-1
MEAN_MOTION_DDOT = 0

CCSDS_OMM_VERS = 2.0
CREATION_DATE  = 
ORIGINATOR     = 

OBJECT_NAME    = STARLINK-36420
OBJECT_ID      = 2026-003P
CENTER_NAME    = EARTH
REF_FRAME      = TEME
TIME_SYSTEM    = UTC
MEAN_ELEMENT_THEORY = SGP/SGP4

EPOCH          = 2026-01-30T22:00:00.999936
MEAN_MOTION    = 15.57197065
ECCENTRICITY   = .00013629
INCLINATION    = 43.0002
RA_OF_ASC_NODE = 82.4410
ARG_OF_PERICENTER = 266.3086
MEAN_ANOMALY   = 84.7877

EPHEMERIS_TYPE = 0
CLASSIFICATION_TYPE = U
NORAD_CAT_ID   = 67347
ELEMENT_SET_NO = 999
REV_AT_EPOCH   = 460
BSTAR          = -.31350121E-1
MEAN_MOTION_DOT = -.2086218E-1
MEAN_MOTION_DDOT = 0

CCSDS_OMM_VERS = 2.0
CREATION_DATE  = 
ORIGINATOR     = 

OBJECT_NAME    = STARLINK-36467
OBJECT_ID      = 2026-003Q
CENTER_NAME    = EARTH
REF_FRAME      = TEME
TIME_SYSTEM    = UTC
MEAN_ELEMENT_THEORY = SGP/SGP4

EPOCH          = 2026-01-30T22:00:00.999936
MEAN_MOTION    = 15.57199760
ECCENTRICITY   = .00014429
INCLINATION    = 43.0000
RA_OF_ASC_NODE = 82.4462
ARG_OF_PERICENTER = 268.3071
MEAN_ANOMALY   = 80.8692

EPHEMERIS_TYPE = 0
CLASSIFICATION_TYPE = U
NORAD_CAT_ID   = 67348
ELEMENT_SET_NO = 999
REV_AT_EPOCH   = 460
BSTAR          = -.31378542E-1
MEAN_MOTION_DOT = -.2088146E-1
MEAN_MOTION_DDOT = 0

